#dP2023  8 17 18  0  0.00000000      96 __u+U ITR00 EXT  IAC
## 2275 410400.00000000   900.00000000 60173 0.7500000000000
+  119   C06C07C08C09C10C11C12C13C14C16C19C20C21C22C23C24C25
+        C26C27C28C29C30C32C33C34C35C36C37C38C39C40C41C42C43
+        C44C45C46E02E03E04E05E07E08E09E10E11E12E13E14E15E18
+        E19E21E24E25E26E27E30E31E33E34E36G01G02G03G04G05G06
+        G07G08G09G10G11G12G13G14G15G16G17G18G19G20G21G22G23
+        G24G25G26G27G28G29G30G31G32J02J03J04R01R02R03R04R05
+        R07R08R09R11R12R13R14R15R16R17R18R19R20R21R22R24R25
++         9  9  9 10 10 12  9  8  8  9  7  8  8  8 10  8  8
++         8  7  8 10  8  8  7 11  8  8  8  9  9 11  7  9 10
++        10  7  8  7  8  8  8  8  8  7  7  8  8  7  7  8  9
++         9  8  7  8  8  7  7  7  8  7  8  7  7  6  9  6  7
++         7  8  6  6  7  6  6  6  7  7  7  7  7  6  6  8  8
++         7  7  7  7  7  7  7  7  6  8 10  9  9  7  9  8  6
++         8  6  8  6  8  9  7  8  7  9  6  8  9 10  7  8  8
%c M  cc GPS ccc cccc cccc cccc cccc ccccc ccccc ccccc ccccc
%c cc cc ccc ccc cccc cccc cccc cccc ccccc ccccc ccccc ccccc
%f  0.0000000  0.000000000  0.00000000000  0.000000000000000
%f  0.0000000  0.000000000  0.00000000000  0.000000000000000
%i    0    0    0    0      0      0      0      0         0
%i    0    0    0    0      0      0      0      0         0
/* IAC                                ULTRA-RAPID PREDICTION
/* S/V CLOCKS ARE ALIGNED TO GNSS TIME                      
/* G:C1WC2W R:C1PC2P E:C1XC5X C:C2IC6I J:C1CC2S             
/* PCV:IGS20_2247 OL/AL:FES2004  NONE     YN ORB:CoN CLK:CoN
*  2023 08 18 11 15  0.00000000
PC06  -2971.662625  26950.262003  32386.634191    915.842800
PC07 -17744.425181  31786.251505 -21351.089033     51.410757
PC08  -7972.007823  40473.630654  -8171.093420    384.784305
PC09   5454.031152  31041.737879  28698.638843    277.605987
PC10 -11184.798122  31842.423447 -25251.581140   -149.384399
PC11 -19286.372120   5382.937455 -19385.010004    785.515007
PC12 -26291.332313  -8352.169934  -4244.625611    880.855087
PC13  -3239.782813  41849.440724  -1497.586756    336.399793
PC14 -22645.471558  16289.637990  -1538.984513    248.404260
PC16  -5581.268251  25115.030534  33706.150965    -40.723490
PC19  17559.161103 -20253.493597  -7700.817602   -962.824363
PC20  24039.046779 -10897.406382   9016.596176    352.507767
PC21 -16519.769860  -5879.334759 -21708.181051   -951.336615
PC22    581.391463 -18444.948480 -20934.485884   -346.197632
PC23   3768.205921  27648.560241     -3.736251   -901.068975
PC24 -16194.450261   2165.643689  22618.529050    296.799756
PC25  -7715.708372  21927.672299  15419.573496    191.993514
PC26 -14827.145881 -16806.716137  16636.074320   -164.935625
PC27  24236.357594  13243.023892  -4033.637180    186.177233
PC28  11133.362718  18238.206834 -17941.754191    139.286614
PC29  10423.847489 -12860.288897  22458.171731    162.506334
PC30  25102.065067    318.254166  12193.999762     -3.644497
PC32  16461.755792   5889.071980  21753.867510   -531.710011
PC33 -17515.400566  20363.964221   7600.110477   -940.478738
PC34 -24500.792887    759.046422 -13337.875300    239.789544
PC35 -11510.644477 -17879.596474  18043.959923    565.281745
PC36   8672.530496 -21181.295730 -15941.750568   -270.397697
PC37  14123.254325  17922.869844 -16029.997943   -809.548392
PC38 -12096.615865  37180.830164 -15524.208324     98.952989
PC39 -10870.857456  21596.226975  34595.628794     -4.374928
PC40 -25334.253115  26242.895996 -21354.080660    -33.321626
PC41  -1226.929267  18814.985184  20621.845767   -887.105902
PC42 -24007.935141   9868.534656 -10246.840912   -574.104123
PC43 -11373.918299  12491.760649 -22219.854650     35.794561
PC44 -24628.478104 -12413.555588   4155.521494    203.797097
PC45  -4100.962621 -27610.427093    549.044251    -15.373925
PC46  15832.314756  -3748.140925 -22669.189915    -77.457365
PE02   1293.235848 -25951.866363  14192.797803     56.354403
PE03  -5573.367736 -16374.874766 -24026.438017    -47.136012
PE04  24304.993103   8102.370711  14826.782992   -192.058532
PE05  16577.515287 -15157.662390 -19274.396831     10.113439
PE07 -29061.962803   4845.499183   2920.895014    -68.256310
PE08 -24030.937396  -8232.312596 -15209.576895   -132.200898
PE09  29073.248352  -4762.701777  -2780.709339   -124.668770
PE10  21473.109454  11056.796728  17091.191983   -557.003569
PE11  18611.093461    474.265230  22998.112836   2749.987917
PE12  20787.891054  19012.751898   9090.881591   -662.633300
PE13 -18871.919967  -1227.705660 -22773.624984    -19.455218
PE14  -7903.246859 -15652.497414  18790.774686    314.717425
PE15 -20705.978182 -19261.474662  -8747.609154    -46.060022
PE18  -3422.709723  19727.763208 -23482.069885    427.377584
PE19   2509.322911  16680.976019  24328.045157  -1824.759122
PE21 -14224.850049  25774.544178   3098.334067   -547.362135
PE24  19686.706151  -9916.345708 -19770.491511   -272.417928
PE25  14402.135126 -25632.671915  -3418.739144     -0.436088
PE26  -5573.384914  17893.410033 -22910.334715    196.282252
PE27 -19631.745316  10616.711099  19449.551924   -127.554174
PE30 -13163.504343 -11140.681700  24056.270369   -427.636869
PE31  13412.106152  10607.851323 -24147.262556     -2.955924
PE33   9906.643305  25721.748544 -10774.828976     -1.423456
PE34 -10464.647742 -25757.938245  10172.239653    -62.191218
PE36   6020.187805 -17269.413768  23271.299196   -102.824170
PG01  18841.203569  10089.831283  15643.212575    168.164867
PG02  20446.730348  13872.622722  10460.285319   -564.147945
PG03  16280.386300  -1667.074625  20747.527923   -181.306331
PG04  26501.918988    702.327732   2471.931191    129.235961
PG05  -9218.277385 -14389.904852 -20488.788209   -139.269255
PG06  -2021.477698 -21459.638333  15518.485481    564.586541
PG07  13727.666712  -6804.499468 -21249.173930     92.415246
PG08  22387.831541   6890.461491 -12965.833148   -137.791619
PG09  24801.447987  -7029.719933  -6570.572487    -83.526102
PG10 -10669.371227  24105.651339   1277.536944    -49.783032
PG11 -12131.721224 -23502.757224   2704.003385   -326.394058
PG12 -15073.851405  -3433.704974  21312.286942   -414.313343
PG13 -15121.476503 -13154.474597 -17725.099211    561.588581
PG14  13435.517555 -22719.685644  -1968.379031    157.710738
PG15 -23313.976081  -4465.174803 -12640.908399     68.782200
PG16   4308.330390  18321.108574 -18862.498866   -466.648896
PG17  12827.544891 -13399.012850  19482.263814    722.885146
PG18 -11677.405837   9363.898990 -21932.979665   -386.714624
PG19   4010.779985 -14590.831213  21588.916199    359.291529
PG20  -3282.869136 -22864.783662 -13237.643730    416.594999
PG21  20363.421606  16102.059746   8032.755456    150.527981
PG22   9471.576372 -24267.561212   6330.582390    139.406947
PG23 -16167.578469  17874.602772 -10963.526063     56.590408
PG24 -20754.266352 -12525.684218  10954.073409   -293.330953
PG25 -17694.253669  11304.912012  15791.880881    462.838435
PG26  -2006.877982  24494.039206  -9733.933092    232.461390
PG27  11802.859736  13096.606124 -20238.623064    -24.125647
PG28    859.888750  20740.501961  16550.079775     75.041449
PG29 -25482.704639   4275.411169  -6432.096086   -607.979740
PG30   6493.381446 -16378.327813 -19681.474820   -495.472700
PG31   8730.738617  23560.698938   7732.800769   -222.032123
PG32  -7900.949753  15058.176318  20536.553646   -542.704166
PJ02 -33382.519237  24646.825232  12735.950094     -2.717138
PJ03 -23901.548623  17961.104750 -25141.080172     -1.228303
PJ04 -25023.383841  33959.511992   7039.533095     70.487317
PR01   7780.797103 -14784.324280 -19274.798503     63.741921
PR02  -9906.081018  -6765.935884 -22461.875471    -22.514605
PR03 -21784.395017   4729.993194 -12302.169519     83.534255
PR04 -21419.246158  13134.482449   4383.018881    199.168938
PR05  -9487.217249  14500.910046  18714.693804    117.545348
PR07  22123.988975  -5216.774656  11662.391676     62.689383
PR08  21308.652963 -13317.525681  -4433.624012    -72.175258
PR09   7128.965879  19342.177444 -15057.298594    137.333721
PR11   9243.029595 -14982.546009 -18436.403976   -135.816375
PR12   1781.888617 -25400.283415  -1599.428556     30.305846
PR13  -5927.574018 -20773.485832  13556.586467    -38.278638
PR14 -11057.333503  -2275.815844  22891.036384     25.092986
PR15  -9138.429021  16089.963255  17587.250961     86.908337
PR16  -1776.034838  25389.570622   1989.843721     17.827021
PR17 -21706.127255  -8400.245700 -10490.042020      9.879332
PR18 -12999.451197   3086.452055 -21707.845087     97.371673
PR19    470.056373  12445.145848 -22261.853382   -243.951394
PR20  17558.821693  16754.958657  -7896.631309    -98.499484
PR21  21340.022160   7853.980297  11518.268376    -31.272322
PR22  12599.638617  -3695.276150  21894.271176    115.052361
PR24 -18392.307869 -16138.238451   7266.755437    -20.932790
PR25  21367.801612   9236.284254  10401.977499     42.044564
EOF
